"Gonggong:225088 Gonggong:2007 OR10" "Sol"
{
	Class	"dwarfplanet"
	Texture	"asteroid.*"
	Color	[ 0.622 0.542 0.42 ]
	BlendTexture	true
	Radius	615
	Oblateness	0.03
	Mass	0.0002930342
	EllipticalOrbit
	{
		Epoch	2459000.5  # 2020 May 31
		Period	554.216220202748
		SemiMajorAxis	67.47051418678518
		Eccentricity	0.5004814860780427
		Inclination	30.6568537182735
		AscendingNode	336.8538560791695
		ArgOfPericenter	207.6663020246991
		MeanAnomaly	106.0196839227434
	}
	UniformRotation  # assume coplanarity with satellite orbit
	{
		Period	22.40
		Inclination	63.553
		AscendingNode	35.972
	}
	LunarLambert	0.5
	GeomAlbedo	0.14
	InfoURL	"https://en.wikipedia.org/wiki/225088_Gonggong"
}

# Radius from Arakawa et al. (2021), AJ 162, no. 6, 226
# "Tidal Evolution of the Eccentric Moon around Dwarf Planet (225088) Gonggong"
# https://ui.adsabs.harvard.edu/abs/2021AJ....162..226A/abstract
# Geometric albedo is calculated using this radius.
"Xiangliu:Gonggong I:225088 Gonggong I:S 2010 (225088) 1" "Sol/Gonggong"
{
	Class	"minormoon"
	Mesh	"asteroid.cms"
	Texture	"asteroid.*"
	Color	[ 0.448 0.421 0.385 ]
	BlendTexture	true
	Radius	100
	OrbitFrame
	{
		EquatorJ2000	{ Center "Sol/Gonggong" }
	}
	EllipticalOrbit  # prograde solution
	{
		Epoch	2457000.0  # 2014 Dec 08 12:00
		Period	25.22073
		SemiMajorAxis	24021
		Eccentricity	0.2908
		Inclination	83.08
		AscendingNode	31.99
		ArgOfPericenter	77.06
		MeanAnomaly	96.52
	}
	LunarLambert	0.5
	GeomAlbedo	0.08
	InfoURL	"https://en.wikipedia.org/wiki/Xiangliu_(moon)"
}
